OBJECT_NAME,OBJECT_ID,EPOCH,MEAN_MOTION,ECCENTRICITY,INCLINATION,RA_OF_ASC_NODE,ARG_OF_PERICENTER,MEAN_ANOMALY,EPHEMERIS_TYPE,CLASSIFICATION_TYPE,NORAD_CAT_ID,ELEMENT_SET_NO,REV_AT_EPOCH,BSTAR,MEAN_MOTION_DOT,MEAN_MOTION_DDOT
ONEWEB-0522,2022-138AD,2026-07-19T06:55:51.583008,13.19724030,.00019809,87.9195,298.5679,105.0331,255.1021,0,U,54140,999,18104,.16810449E-3,.8E-6,0
ONEWEB-0523,2022-138AE,2026-07-19T14:30:48.902688,13.20770781,.00021543,87.9182,267.9813,76.5283,283.6090,0,U,54141,999,18358,-.31466952E-3,-.115E-5,0
ONEWEB-0524,2022-138AF,2026-07-19T12:27:11.158560,13.20771390,.00028384,87.9183,267.9952,87.7709,272.3749,0,U,54142,999,18357,-.24365103E-3,-.86E-6,0
ONEWEB-0525,2022-138AG,2026-07-19T12:50:41.224704,13.19724369,.00022955,87.9196,298.5260,108.7791,251.3591,0,U,54143,999,18109,.27284986E-3,.122E-5,0
ONEWEB-0526,2022-138AH,2026-07-19T08:10:55.590816,13.19724286,.00021575,87.9194,298.5652,102.6987,257.4387,0,U,54144,999,18104,.1676236E-3,.8E-6,0
ONEWEB-0529,2022-138AJ,2026-07-19T06:26:18.211776,13.19726738,.00021551,87.9185,298.5862,107.3415,252.7954,0,U,54145,999,18105,.12066439E-3,.61E-6,0
ONEWEB-0531,2022-138AK,2026-07-19T10:18:41.483520,13.20770544,.00023876,87.9186,268.0104,77.4556,282.6844,0,U,54146,999,18356,-.28077594E-3,-.101E-5,0
ONEWEB-0535,2022-138AL,2026-07-19T07:14:02.790816,13.19724708,.00019331,87.9194,298.5663,92.5044,267.6310,0,U,54147,999,18107,-.41127794E-3,-.152E-5,0
ONEWEB-0536,2022-138AM,2026-07-19T04:32:01.779072,13.20771064,.00026264,87.9170,268.0769,76.7913,283.3513,0,U,54148,999,18352,-.43602336E-3,-.164E-5,0
ONEWEB-0527,2022-166A,2026-07-19T02:53:32.976384,13.21827773,.00021072,87.9232,237.6411,97.0728,263.0645,0,U,54642,999,17575,.1465437E-3,.74E-6,0
ONEWEB-0528,2022-166B,2026-07-19T11:59:46.976928,13.21825960,.00021949,87.9231,237.5682,100.0798,260.0584,0,U,54643,999,17581,-.12663324E-3,-.39E-6,0
ONEWEB-0539,2022-166C,2026-07-19T12:54:16.758144,13.21824226,.00018511,87.9236,237.5346,96.4002,263.7343,0,U,54644,999,17581,.90726737E-4,.5E-6,0
ONEWEB-0540,2022-166D,2026-07-19T11:15:10.145088,13.21824388,.00019531,87.9230,237.5764,94.4633,265.6724,0,U,54645,999,17579,-.2148104E-3,-.76E-6,0
ONEWEB-0542,2022-166E,2026-07-19T13:08:49.533792,13.21826124,.00017597,87.9240,237.5318,96.3944,263.7390,0,U,54646,999,17581,-.59679036E-4,-.12E-6,0
ONEWEB-0545,2022-166F,2026-07-19T03:12:56.693664,13.21826215,.00014632,87.9233,237.6237,90.4094,269.7207,0,U,54647,999,17572,.15010011E-3,.75E-6,0
ONEWEB-0580,2022-166G,2026-07-19T13:30:36.417600,13.21823714,.0001728,87.9230,237.5375,88.9626,271.1706,0,U,54648,999,17582,-.77187767E-4,-.19E-6,0
ONEWEB-0582,2022-166H,2026-07-19T03:37:08.274144,13.21824135,.00016044,87.9231,237.6124,92.9396,267.1921,0,U,54649,999,17574,.61233299E-4,.38E-6,0
ONEWEB-0583,2022-166J,2026-07-19T11:10:08.140800,13.21825735,.00019297,87.9231,237.5731,94.7369,265.3985,0,U,54650,999,17579,-.15545555E-3,-.51E-6,0
ONEWEB-0584,2022-166K,2026-07-19T11:39:11.380032,13.21825353,.00020957,87.9231,237.5539,95.4181,264.7192,0,U,54651,999,17578,-.22796591E-4,.4E-7,0
ONEWEB-0585,2022-166L,2026-07-19T12:13:05.594592,13.21823945,.00022479,87.9231,237.5368,96.1888,263.9502,0,U,54652,999,17579,.86828045E-4,.49E-6,0
ONEWEB-0586,2022-166M,2026-07-19T12:32:28.689792,13.21824248,.00018754,87.9232,237.5600,97.3403,262.7944,0,U,54653,999,17579,.36860589E-4,.28E-6,0
ONEWEB-0587,2022-166N,2026-07-19T03:42:00.950688,13.21826201,.0002407,87.9240,237.6097,97.4728,262.6679,0,U,54654,999,17590,.8444287E-5,.17E-6,0
ONEWEB-0589,2022-166P,2026-07-19T12:27:39.026880,13.21825619,.00013047,87.9230,237.5454,82.0398,278.0884,0,U,54655,999,17581,-.18735953E-4,.5E-7,0
ONEWEB-0590,2022-166Q,2026-07-19T11:14:45.394944,13.21826282,.00022119,87.9240,237.5487,84.3754,275.7632,0,U,54656,999,17579,.28729312E-4,.25E-6,0
ONEWEB-0591,2022-166R,2026-07-19T13:20:54.452256,13.21824240,.00020236,87.9228,237.5430,92.3043,267.8323,0,U,54657,999,17583,-.27179081E-3,-.99E-6,0
ONEWEB-0592,2022-166S,2026-07-19T11:36:46.083744,13.21824558,.00020551,87.9241,237.5385,96.6955,263.4413,0,U,54658,999,17570,.1517156E-4,.19E-6,0
ONEWEB-0593,2022-166T,2026-07-19T12:08:15.515232,13.21826465,.00019176,87.9237,237.5440,97.9898,262.1454,0,U,54659,999,17581,.10301912E-3,.56E-6,0
ONEWEB-0594,2022-166U,2026-07-19T03:32:18.750336,13.21824915,.0002239,87.9231,237.6310,98.5481,261.5906,0,U,54660,999,17578,-.48961798E-4,-.7E-7,0
ONEWEB-0595,2022-166V,2026-07-19T08:25:25.167936,13.21826125,.00022981,87.9240,237.5736,94.5677,265.5719,0,U,54661,999,17578,.54916401E-4,.36E-6,0
ONEWEB-0596,2022-166W,2026-07-19T13:16:04.584576,13.21821341,.0002105,87.9232,237.5427,96.3550,263.7824,0,U,54662,999,17581,.12150222E-2,.515E-5,0
